start=new Date('2022-08-25T00:00:00.000Z').valueOf();
sats=[{"TIME_SYSTEM":"UTC","NORAD_CAT_ID":"53493","TLE_LINE1":"1 53493U 22099AE  22236.91667824 -.00026820  00000-0 -22062-3 0  9999","SEMIMAJOR_AXIS":"6736.137","PERIAPSIS":"357.073","EPOCH":"2022-08-24T22:00:00.999936","RCS_SIZE":null,"ELEMENT_SET_NO":"999","INCLINATION":"97.6558","OBJECT_NAME":"STARLINK-4361","REV_AT_EPOCH":"130","BSTAR":"-0.00022062000000","EPHEMERIS_TYPE":"0","OBJECT_TYPE":"PAYLOAD","COUNTRY_CODE":"US","APOAPSIS":"358.932","MEAN_MOTION_DDOT":"0.0000000000000","REF_FRAME":"TEME","OBJECT_ID":"2022-099AE","TLE_LINE2":"2 53493  97.6558 355.2943 0001380  90.3894 172.6341 15.70313453  1302","PERIOD":"91.701","ARG_OF_PERICENTER":"90.3894","GP_ID":"210937209","ECCENTRICITY":"0.00013800","SITE":"AFWTR","RA_OF_ASC_NODE":"355.2943","MEAN_ANOMALY":"172.6341","FILE":"3546663","CLASSIFICATION_TYPE":"U","LAUNCH_DATE":"2022-08-12","MEAN_ELEMENT_THEORY":"SGP4","DECAY_DATE":null,"CENTER_NAME":"EARTH","MEAN_MOTION_DOT":"-0.00026820","MEAN_MOTION":"15.70313453"},{"NORAD_CAT_ID":"53494","TLE_LINE1":"1 53494U 22099AF  22236.91667824 -.00023344  00000-0 -19152-3 0  9994","SEMIMAJOR_AXIS":"6736.038","TIME_SYSTEM":"UTC","ELEMENT_SET_NO":"999","INCLINATION":"97.6563","PERIAPSIS":"356.887","EPOCH":"2022-08-24T22:00:00.999936","RCS_SIZE":null,"EPHEMERIS_TYPE":"0","OBJECT_TYPE":"PAYLOAD","REV_AT_EPOCH":"130","OBJECT_NAME":"STARLINK-4340","BSTAR":"-0.00019152000000","REF_FRAME":"TEME","COUNTRY_CODE":"US","MEAN_MOTION_DDOT":"0.0000000000000","APOAPSIS":"358.919","OBJECT_ID":"2022-099AF","TLE_LINE2":"2 53494  97.6563 355.2924 0001508  73.8261 187.4064 15.70348233  1304","PERIOD":"91.699","MEAN_ANOMALY":"187.4064","RA_OF_ASC_NODE":"355.2924","ARG_OF_PERICENTER":"73.8261","GP_ID":"210937231","ECCENTRICITY":"0.00015080","SITE":"AFWTR","FILE":"3546663","CLASSIFICATION_TYPE":"U","DECAY_DATE":null,"CENTER_NAME":"EARTH","MEAN_MOTION_DOT":"-0.00023344","MEAN_MOTION":"15.70348233","MEAN_ELEMENT_THEORY":"SGP4","LAUNCH_DATE":"2022-08-12"},{"TIME_SYSTEM":"UTC","NORAD_CAT_ID":"53495","TLE_LINE1":"1 53495U 22099AG  22236.91667824 -.00025955  00000-0 -21363-3 0  9992","SEMIMAJOR_AXIS":"6736.199","PERIAPSIS":"356.974","EPOCH":"2022-08-24T22:00:00.999936","RCS_SIZE":null,"ELEMENT_SET_NO":"999","INCLINATION":"97.6561","OBJECT_NAME":"STARLINK-4429","REV_AT_EPOCH":"130","BSTAR":"-0.00021363000000","EPHEMERIS_TYPE":"0","OBJECT_TYPE":"PAYLOAD","COUNTRY_CODE":"US","MEAN_MOTION_DDOT":"0.0000000000000","APOAPSIS":"359.154","REF_FRAME":"TEME","OBJECT_ID":"2022-099AG","TLE_LINE2":"2 53495  97.6561 355.2959 0001618  82.5234 181.5753 15.70292039  1302","PERIOD":"91.703","ARG_OF_PERICENTER":"82.5234","GP_ID":"210936356","ECCENTRICITY":"0.00016180","SITE":"AFWTR","RA_OF_ASC_NODE":"355.2959","MEAN_ANOMALY":"181.5753","FILE":"3546663","CLASSIFICATION_TYPE":"U","MEAN_ELEMENT_THEORY":"SGP4","LAUNCH_DATE":"2022-08-12","DECAY_DATE":null,"CENTER_NAME":"EARTH","MEAN_MOTION_DOT":"-0.00025955","MEAN_MOTION":"15.70292039"},{"BSTAR":"-0.00023810000000","OBJECT_NAME":"STARLINK-4465","REV_AT_EPOCH":"130","OBJECT_TYPE":"PAYLOAD","EPHEMERIS_TYPE":"0","MEAN_MOTION_DDOT":"0.0000000000000","APOAPSIS":"358.872","COUNTRY_CODE":"US","REF_FRAME":"TEME","TIME_SYSTEM":"UTC","SEMIMAJOR_AXIS":"6736.147","TLE_LINE1":"1 53496U 22099AH  22236.91667824 -.00028923  00000-0 -23810-3 0  9990","NORAD_CAT_ID":"53496","RCS_SIZE":null,"EPOCH":"2022-08-24T22:00:00.999936","PERIAPSIS":"357.153","INCLINATION":"97.6562","ELEMENT_SET_NO":"999","CLASSIFICATION_TYPE":"U","FILE":"3546663","MEAN_ELEMENT_THEORY":"SGP4","LAUNCH_DATE":"2022-08-12","MEAN_MOTION":"15.70309985","MEAN_MOTION_DOT":"-0.00028923","CENTER_NAME":"EARTH","DECAY_DATE":null,"PERIOD":"91.702","TLE_LINE2":"2 53496  97.6562 355.2936 0001276  93.4788 169.0456 15.70309985  1304","OBJECT_ID":"2022-099AH","SITE":"AFWTR","ECCENTRICITY":"0.00012760","GP_ID":"210936502","ARG_OF_PERICENTER":"93.4788","RA_OF_ASC_NODE":"355.2936","MEAN_ANOMALY":"169.0456"},{"BSTAR":"-0.00020994000000","OBJECT_NAME":"STARLINK-4453","REV_AT_EPOCH":"130","OBJECT_TYPE":"PAYLOAD","EPHEMERIS_TYPE":"0","APOAPSIS":"358.771","MEAN_MOTION_DDOT":"0.0000000000000","COUNTRY_CODE":"US","REF_FRAME":"TEME","TIME_SYSTEM":"UTC","SEMIMAJOR_AXIS":"6736.060","TLE_LINE1":"1 53497U 22099AJ  22236.91667824 -.00025560  00000-0 -20994-3 0  9995","NORAD_CAT_ID":"53497","RCS_SIZE":null,"EPOCH":"2022-08-24T22:00:00.999936","PERIAPSIS":"357.079","INCLINATION":"97.6561","ELEMENT_SET_NO":"999","CLASSIFICATION_TYPE":"U","FILE":"3546663","MEAN_ELEMENT_THEORY":"SGP4","LAUNCH_DATE":"2022-08-12","MEAN_MOTION":"15.70340472","MEAN_MOTION_DOT":"-0.00025560","CENTER_NAME":"EARTH","DECAY_DATE":null,"PERIOD":"91.700","TLE_LINE2":"2 53497  97.6561 355.2953 0001256  74.5839 190.8095 15.70340472  1305","OBJECT_ID":"2022-099AJ","SITE":"AFWTR","ECCENTRICITY":"0.00012560","GP_ID":"210937377","ARG_OF_PERICENTER":"74.5839","MEAN_ANOMALY":"190.8095","RA_OF_ASC_NODE":"355.2953"},{"FILE":"3546663","CLASSIFICATION_TYPE":"U","MEAN_MOTION_DOT":"-0.00025894","MEAN_MOTION":"15.70334629","DECAY_DATE":null,"CENTER_NAME":"EARTH","MEAN_ELEMENT_THEORY":"SGP4","LAUNCH_DATE":"2022-08-12","TLE_LINE2":"2 53498  97.6564 355.2942 0001338  74.4732 189.1600 15.70334629  1309","PERIOD":"91.700","OBJECT_ID":"2022-099AK","MEAN_ANOMALY":"189.1600","RA_OF_ASC_NODE":"355.2942","ECCENTRICITY":"0.00013380","GP_ID":"210937063","SITE":"AFWTR","ARG_OF_PERICENTER":"74.4732","EPHEMERIS_TYPE":"0","OBJECT_TYPE":"PAYLOAD","BSTAR":"-0.00021275000000","OBJECT_NAME":"STARLINK-4439","REV_AT_EPOCH":"130","REF_FRAME":"TEME","APOAPSIS":"358.843","MEAN_MOTION_DDOT":"0.0000000000000","COUNTRY_CODE":"US","TLE_LINE1":"1 53498U 22099AK  22236.91667824 -.00025894  00000-0 -21275-3 0  9999","SEMIMAJOR_AXIS":"6736.077","NORAD_CAT_ID":"53498","TIME_SYSTEM":"UTC","INCLINATION":"97.6564","ELEMENT_SET_NO":"999","RCS_SIZE":null,"PERIAPSIS":"357.041","EPOCH":"2022-08-24T22:00:00.999936"},{"EPHEMERIS_TYPE":"0","OBJECT_TYPE":"PAYLOAD","OBJECT_NAME":"STARLINK-4454","REV_AT_EPOCH":"213","BSTAR":"0.00072001000000","REF_FRAME":"TEME","COUNTRY_CODE":"US","APOAPSIS":"359.266","MEAN_MOTION_DDOT":"0.0000000000000","NORAD_CAT_ID":"53499","TLE_LINE1":"1 53499U 22099AL  22236.91667824  .00087749  00000-0  72001-3 0  9998","SEMIMAJOR_AXIS":"6736.465","TIME_SYSTEM":"UTC","ELEMENT_SET_NO":"999","INCLINATION":"97.6556","PERIAPSIS":"357.393","EPOCH":"2022-08-24T22:00:00.999936","RCS_SIZE":null,"FILE":"3546638","CLASSIFICATION_TYPE":"U","DECAY_DATE":null,"CENTER_NAME":"EARTH","MEAN_MOTION_DOT":"0.00087749","MEAN_MOTION":"15.70198993","MEAN_ELEMENT_THEORY":"SGP4","LAUNCH_DATE":"2022-08-12","OBJECT_ID":"2022-099AL","TLE_LINE2":"2 53499  97.6556 355.2974 0001390  82.7699 183.3165 15.70198993  2134","PERIOD":"91.708","RA_OF_ASC_NODE":"355.2974","MEAN_ANOMALY":"183.3165","ARG_OF_PERICENTER":"82.7699","ECCENTRICITY":"0.00013900","GP_ID":"210911332","SITE":"AFWTR"},{"MEAN_ANOMALY":"183.3806","RA_OF_ASC_NODE":"355.2954","ECCENTRICITY":"0.00016150","GP_ID":"210936916","SITE":"AFWTR","ARG_OF_PERICENTER":"81.4412","TLE_LINE2":"2 53500  97.6562 355.2954 0001615  81.4412 183.3806 15.70247483  1300","PERIOD":"91.705","OBJECT_ID":"2022-099AM","MEAN_MOTION_DOT":"0.00055586","MEAN_MOTION":"15.70247483","DECAY_DATE":null,"CENTER_NAME":"EARTH","LAUNCH_DATE":"2022-08-12","MEAN_ELEMENT_THEORY":"SGP4","FILE":"3546663","CLASSIFICATION_TYPE":"U","INCLINATION":"97.6562","ELEMENT_SET_NO":"999","RCS_SIZE":null,"PERIAPSIS":"357.103","EPOCH":"2022-08-24T22:00:00.999936","TLE_LINE1":"1 53500U 22099AM  22236.91667824  .00055586  00000-0  45733-3 0  9997","SEMIMAJOR_AXIS":"6736.326","NORAD_CAT_ID":"53500","TIME_SYSTEM":"UTC","REF_FRAME":"TEME","MEAN_MOTION_DDOT":"0.0000000000000","APOAPSIS":"359.279","COUNTRY_CODE":"US","EPHEMERIS_TYPE":"0","OBJECT_TYPE":"PAYLOAD","BSTAR":"0.00045733000000","REV_AT_EPOCH":"130","OBJECT_NAME":"STARLINK-4455"},{"MEAN_ANOMALY":"190.7321","RA_OF_ASC_NODE":"355.2974","SITE":"AFWTR","ECCENTRICITY":"0.00017350","GP_ID":"210937210","ARG_OF_PERICENTER":"77.0236","PERIOD":"91.702","TLE_LINE2":"2 53501  97.6561 355.2974 0001735  77.0236 190.7321 15.70295368  1309","OBJECT_ID":"2022-099AN","MEAN_MOTION":"15.70295368","MEAN_MOTION_DOT":"-0.00026353","CENTER_NAME":"EARTH","DECAY_DATE":null,"MEAN_ELEMENT_THEORY":"SGP4","LAUNCH_DATE":"2022-08-12","CLASSIFICATION_TYPE":"U","FILE":"3546663","INCLINATION":"97.6561","ELEMENT_SET_NO":"999","RCS_SIZE":null,"EPOCH":"2022-08-24T22:00:00.999936","PERIAPSIS":"356.885","SEMIMAJOR_AXIS":"6736.189","TLE_LINE1":"1 53501U 22099AN  22236.91667824 -.00026353  00000-0 -21690-3 0  9996","NORAD_CAT_ID":"53501","TIME_SYSTEM":"UTC","REF_FRAME":"TEME","APOAPSIS":"359.223","MEAN_MOTION_DDOT":"0.0000000000000","COUNTRY_CODE":"US","OBJECT_TYPE":"PAYLOAD","EPHEMERIS_TYPE":"0","BSTAR":"-0.00021690000000","REV_AT_EPOCH":"130","OBJECT_NAME":"STARLINK-4434"},{"APOAPSIS":"358.966","MEAN_MOTION_DDOT":"0.0000000000000","COUNTRY_CODE":"US","REF_FRAME":"TEME","BSTAR":"-0.00021831000000","REV_AT_EPOCH":"130","OBJECT_NAME":"STARLINK-4435","EPHEMERIS_TYPE":"0","OBJECT_TYPE":"PAYLOAD","RCS_SIZE":null,"PERIAPSIS":"357.130","EPOCH":"2022-08-24T22:00:00.999936","INCLINATION":"97.6560","ELEMENT_SET_NO":"999","TIME_SYSTEM":"UTC","TLE_LINE1":"1 53502U 22099AP  22236.91667824 -.00026524  00000-0 -21831-3 0  9994","SEMIMAJOR_AXIS":"6736.183","NORAD_CAT_ID":"53502","LAUNCH_DATE":"2022-08-12","MEAN_ELEMENT_THEORY":"SGP4","MEAN_MOTION_DOT":"-0.00026524","MEAN_MOTION":"15.70297543","DECAY_DATE":null,"CENTER_NAME":"EARTH","FILE":"3546663","CLASSIFICATION_TYPE":"U","GP_ID":"210937232","ECCENTRICITY":"0.00013630","SITE":"AFWTR","ARG_OF_PERICENTER":"84.2924","MEAN_ANOMALY":"182.3996","RA_OF_ASC_NODE":"355.2963","TLE_LINE2":"2 53502  97.6560 355.2963 0001363  84.2924 182.3996 15.70297543  1300","PERIOD":"91.702","OBJECT_ID":"2022-099AP"}];
